{"type": "FeatureCollection", "features": [ {"type": "Feature", "properties": {"norad_id": 31024, "name": "FENGYUN 1C DEB", "group": "fengyun-1c-debris", "lat": 80.80847588953078, "lon": -165.70196599892736, "alt_km": 760.6453600331215, "timestamp": "2025-12-26T10:30:50.547858+00:00", "meta": {"OBJECT_NAME": "FENGYUN 1C DEB", "OBJECT_ID": "1999-025BDS", "EPOCH": "2025-12-25T12:08:00.060864", "MEAN_MOTION": 14.20874819, "ECCENTRICITY": 0.0075452, "INCLINATION": 99.0429, "RA_OF_ASC_NODE": 273.1402, "ARG_OF_PERICENTER": 88.574, "MEAN_ANOMALY": 272.4078, "EPHEMERIS_TYPE": 0, "CLASSIFICATION_TYPE": "U", "NORAD_CAT_ID": 31024, "ELEMENT_SET_NO": 999, "REV_AT_EPOCH": 96885, "BSTAR": 0.00029224, "MEAN_MOTION_DOT": 6.05e-06, "MEAN_MOTION_DDOT": 0}, "tle": {"line1": "1 31024U 99025BDS 25359.50555626  .00000605  00000+0  29224-3 0  9995", "line2": "2 31024  99.0429 273.1402 0075452  88.5740 272.4078 14.20874819968859"}}, "geometry": {"type": "Point", "coordinates": [-165.70196599892736, 80.80847588953078]}}, {"type": "Feature", "properties": {"norad_id": 31025, "name": "FENGYUN 1C DEB", "group": "fengyun-1c-debris", "lat": -80.73422595899453, "lon": 102.50130467510566, "alt_km": 779.2300633788, "timestamp": "2025-12-26T10:30:50.547869+00:00", "meta": {"OBJECT_NAME": "FENGYUN 1C DEB", "OBJECT_ID": "1999-025BDT", "EPOCH": "2025-12-07T05:28:07.771008", "MEAN_MOTION": 14.20521805, "ECCENTRICITY": 0.01734931, "INCLINATION": 98.58, "RA_OF_ASC_NODE": 331.5793, "ARG_OF_PERICENTER": 28.741, "MEAN_ANOMALY": 332.3194, "EPHEMERIS_TYPE": 0, "CLASSIFICATION_TYPE": "U", "NORAD_CAT_ID": 31025, "ELEMENT_SET_NO": 999, "REV_AT_EPOCH": 64287, "BSTAR": 0.0012507545, "MEAN_MOTION_DOT": 3.084e-05, "MEAN_MOTION_DDOT": 0}, "tle": {"line1": "1 31025U 99025BDT 25341.22786772  .00003084  00000+0  12508-2 0  9994", "line2": "2 31025  98.5800 331.5793 0173493  28.7410 332.3194 14.20521805642873"}}, "geometry": {"type": "Point", "coordinates": [102.50130467510566, -80.73422595899453]}}, {"type": "Feature", "properties": {"norad_id": 31026, "name": "FENGYUN 1C DEB", "group": "fengyun-1c-debris", "lat": -61.46098610816977, "lon": 98.58145899310526, "alt_km": 970.0456774808636, "timestamp": "2025-12-26T10:30:50.547880+00:00", "meta": {"OBJECT_NAME": "FENGYUN 1C DEB", "OBJECT_ID": "1999-025BDU", "EPOCH": "2025-12-16T14:07:08.116896", "MEAN_MOTION": 13.83400412, "ECCENTRICITY": 0.01344959, "INCLINATION": 98.7801, "RA_OF_ASC_NODE": 285.8947, "ARG_OF_PERICENTER": 172.0946, "MEAN_ANOMALY": 1.2766, "EPHEMERIS_TYPE": 0, "CLASSIFICATION_TYPE": "U", "NORAD_CAT_ID": 31026, "ELEMENT_SET_NO": 999, "REV_AT_EPOCH": 68079, "BSTAR": 0.00014906948, "MEAN_MOTION_DOT": 1.36e-06, "MEAN_MOTION_DDOT": 0}, "tle": {"line1": "1 31026U 99025BDU 25350.58828839  .00000136  00000+0  14907-3 0  9996", "line2": "2 31026  98.7801 285.8947 0134495 172.0946   1.2766 13.83400412680793"}}, "geometry": {"type": "Point", "coordinates": [98.58145899310526, -61.46098610816977]}}, {"type": "Feature", "properties": {"norad_id": 31028, "name": "FENGYUN 1C DEB", "group": "fengyun-1c-debris", "lat": 12.572711365833412, "lon": 113.35966344630371, "alt_km": 929.9562645087026, "timestamp": "2025-12-26T10:30:50.547890+00:00", "meta": {"OBJECT_NAME": "FENGYUN 1C DEB", "OBJECT_ID": "1999-025BDW", "EPOCH": "2025-12-25T00:50:54.506976", "MEAN_MOTION": 13.89080834, "ECCENTRICITY": 0.01641634, "INCLINATION": 98.7065, "RA_OF_ASC_NODE": 290.0897, "ARG_OF_PERICENTER": 260.5162, "MEAN_ANOMALY": 97.7411, "EPHEMERIS_TYPE": 0, "CLASSIFICATION_TYPE": "U", "NORAD_CAT_ID": 31028, "ELEMENT_SET_NO": 999, "REV_AT_EPOCH": 62174, "BSTAR": 0.00025878519, "MEAN_MOTION_DOT": 3.08e-06, "MEAN_MOTION_DDOT": 0}, "tle": {"line1": "1 31028U 99025BDW 25359.03535309  .00000308  00000+0  25879-3 0  9995", "line2": "2 31028  98.7065 290.0897 0164163 260.5162  97.7411 13.89080834621742"}}, "geometry": {"type": "Point", "coordinates": [113.35966344630371, 12.572711365833412]}}, {"type": "Feature", "properties": {"norad_id": 31029, "name": "FENGYUN 1C DEB", "group": "fengyun-1c-debris", "lat": 19.86153901297761, "lon": 80.90772446976901, "alt_km": 814.5233486395055, "timestamp": "2025-12-26T10:30:50.547900+00:00", "meta": {"OBJECT_NAME": "FENGYUN 1C DEB", "OBJECT_ID": "1999-025BDX", "EPOCH": "2025-12-24T16:12:29.903904", "MEAN_MOTION": 14.34345661, "ECCENTRICITY": 0.00899574, "INCLINATION": 98.8586, "RA_OF_ASC_NODE": 255.872, "ARG_OF_PERICENTER": 39.1712, "MEAN_ANOMALY": 22.7779, "EPHEMERIS_TYPE": 0, "CLASSIFICATION_TYPE": "U", "NORAD_CAT_ID": 31029, "ELEMENT_SET_NO": 999, "REV_AT_EPOCH": 97967, "BSTAR": 0.00034634204, "MEAN_MOTION_DOT": 9.72e-06, "MEAN_MOTION_DDOT": 0}, "tle": {"line1": "1 31029U 99025BDX 25358.67534611  .00000972  00000+0  34634-3 0  9996", "line2": "2 31029  98.8586 255.8720 0089957  39.1712  22.7779 14.34345661979670"}}, "geometry": {"type": "Point", "coordinates": [80.90772446976901, 19.86153901297761]}}, {"type": "Feature", "properties": {"norad_id": 31030, "name": "FENGYUN 1C DEB", "group": "fengyun-1c-debris", "lat": 3.249323150272479, "lon": -117.1847981002384, "alt_km": 828.184586478118, "timestamp": "2025-12-26T10:30:50.547910+00:00", "meta": {"OBJECT_NAME": "FENGYUN 1C DEB", "OBJECT_ID": "1999-025BDY", "EPOCH": "2025-12-26T03:04:59.043360", "MEAN_MOTION": 14.23723884, "ECCENTRICITY": 0.0027051, "INCLINATION": 98.7657, "RA_OF_ASC_NODE": 62.0048, "ARG_OF_PERICENTER": 45.7714, "MEAN_ANOMALY": 344.5393, "EPHEMERIS_TYPE": 0, "CLASSIFICATION_TYPE": "U", "NORAD_CAT_ID": 31030, "ELEMENT_SET_NO": 999, "REV_AT_EPOCH": 96895, "BSTAR": 0.00084199, "MEAN_MOTION_DOT": 1.886e-05, "MEAN_MOTION_DDOT": 0}, "tle": {"line1": "1 31030U 99025BDY 25360.12846115  .00001886  00000+0  84199-3 0  9992", "line2": "2 31030  98.7657  62.0048 0027051  45.7714 344.5393 14.23723884968954"}}, "geometry": {"type": "Point", "coordinates": [-117.1847981002384, 3.249323150272479]}}, {"type": "Feature", "properties": {"norad_id": 31031, "name": "FENGYUN 1C DEB", "group": "fengyun-1c-debris", "lat": 45.17078113545293, "lon": -91.34454477638242, "alt_km": 821.7516052492401, "timestamp": "2025-12-26T10:30:50.547920+00:00", "meta": {"OBJECT_NAME": "FENGYUN 1C DEB", "OBJECT_ID": "1999-025BDZ", "EPOCH": "2025-12-24T00:55:32.714976", "MEAN_MOTION": 14.2100357, "ECCENTRICITY": 0.00282093, "INCLINATION": 99.0724, "RA_OF_ASC_NODE": 275.4423, "ARG_OF_PERICENTER": 153.5984, "MEAN_ANOMALY": 224.558, "EPHEMERIS_TYPE": 0, "CLASSIFICATION_TYPE": "U", "NORAD_CAT_ID": 31031, "ELEMENT_SET_NO": 999, "REV_AT_EPOCH": 97015, "BSTAR": 0.00038521203, "MEAN_MOTION_DOT": 7.92e-06, "MEAN_MOTION_DDOT": 0}, "tle": {"line1": "1 31031U 99025BDZ 25358.03857309  .00000792  00000+0  38521-3 0  9990", "line2": "2 31031  99.0724 275.4423 0028209 153.5984 224.5580 14.21003570970155"}}, "geometry": {"type": "Point", "coordinates": [-91.34454477638242, 45.17078113545293]}}, {"type": "Feature", "properties": {"norad_id": 31032, "name": "FENGYUN 1C DEB", "group": "fengyun-1c-debris", "lat": -42.55246861002093, "lon": -179.05723552926784, "alt_km": 847.7794692909538, "timestamp": "2025-12-26T10:30:50.547938+00:00", "meta": {"OBJECT_NAME": "FENGYUN 1C DEB", "OBJECT_ID": "1999-025BEA", "EPOCH": "2025-12-25T16:40:21.675648", "MEAN_MOTION": 14.02253104, "ECCENTRICITY": 0.01392, "INCLINATION": 99.3998, "RA_OF_ASC_NODE": 8.9231, "ARG_OF_PERICENTER": 160.7665, "MEAN_ANOMALY": 270.3007, "EPHEMERIS_TYPE": 0, "CLASSIFICATION_TYPE": "U", "NORAD_CAT_ID": 31032, "ELEMENT_SET_NO": 999, "REV_AT_EPOCH": 95163, "BSTAR": 0.0014746921, "MEAN_MOTION_DOT": 2.414e-05, "MEAN_MOTION_DDOT": 0}, "tle": {"line1": "1 31032U 99025BEA 25359.69469532  .00002414  00000+0  14747-2 0  9997", "line2": "2 31032  99.3998   8.9231 0139200 160.7665 270.3007 14.02253104951632"}}, "geometry": {"type": "Point", "coordinates": [-179.05723552926784, -42.55246861002093]}}, {"type": "Feature", "properties": {"norad_id": 31033, "name": "FENGYUN 1C DEB", "group": "fengyun-1c-debris", "lat": 74.58606212198356, "lon": -54.2868231444262, "alt_km": 683.100477822536, "timestamp": "2025-12-26T10:30:50.547948+00:00", "meta": {"OBJECT_NAME": "FENGYUN 1C DEB", "OBJECT_ID": "1999-025BEB", "EPOCH": "2025-12-25T11:12:03.348288", "MEAN_MOTION": 14.27466706, "ECCENTRICITY": 0.0154181, "INCLINATION": 98.4399, "RA_OF_ASC_NODE": 337.3578, "ARG_OF_PERICENTER": 73.3068, "MEAN_ANOMALY": 54.6243, "EPHEMERIS_TYPE": 0, "CLASSIFICATION_TYPE": "U", "NORAD_CAT_ID": 31033, "ELEMENT_SET_NO": 999, "REV_AT_EPOCH": 97527, "BSTAR": 0.0002276, "MEAN_MOTION_DOT": 5.91e-06, "MEAN_MOTION_DDOT": 0}, "tle": {"line1": "1 31033U 99025BEB 25359.46670542  .00000591  00000+0  22760-3 0  9997", "line2": "2 31033  98.4399 337.3578 0154181  73.3068  54.6243 14.27466706975274"}}, "geometry": {"type": "Point", "coordinates": [-54.2868231444262, 74.58606212198356]}}, {"type": "Feature", "properties": {"norad_id": 31036, "name": "FENGYUN 1C DEB", "group": "fengyun-1c-debris", "lat": -51.40334550368087, "lon": -83.66781256649988, "alt_km": 638.6797913018881, "timestamp": "2025-12-26T10:30:50.547961+00:00", "meta": {"OBJECT_NAME": "FENGYUN 1C DEB", "OBJECT_ID": "1999-025BEE", "EPOCH": "2025-12-26T03:22:44.154048", "MEAN_MOTION": 14.49101533, "ECCENTRICITY": 0.0137842, "INCLINATION": 98.9152, "RA_OF_ASC_NODE": 107.3597, "ARG_OF_PERICENTER": 224.122, "MEAN_ANOMALY": 257.813, "EPHEMERIS_TYPE": 0, "CLASSIFICATION_TYPE": "U", "NORAD_CAT_ID": 31036, "ELEMENT_SET_NO": 999, "REV_AT_EPOCH": 57501, "BSTAR": 0.00027721, "MEAN_MOTION_DOT": 1.131e-05, "MEAN_MOTION_DDOT": 0}, "tle": {"line1": "1 31036U 99025BEE 25360.14078882  .00001131  00000+0  27721-3 0  9999", "line2": "2 31036  98.9152 107.3597 0137842 224.1220 257.8130 14.49101533575014"}}, "geometry": {"type": "Point", "coordinates": [-83.66781256649988, -51.40334550368087]}}]}